OBJECT_NAME,OBJECT_ID,EPOCH,MEAN_MOTION,ECCENTRICITY,INCLINATION,RA_OF_ASC_NODE,ARG_OF_PERICENTER,MEAN_ANOMALY,EPHEMERIS_TYPE,CLASSIFICATION_TYPE,NORAD_CAT_ID,ELEMENT_SET_NO,REV_AT_EPOCH,BSTAR,MEAN_MOTION_DOT,MEAN_MOTION_DDOT
STARLINK-2513,2021-036AT,2026-06-09T21:09:16.028928,15.31697593,.0001146,53.1595,19.3231,83.9044,276.2088,0,U,48317,999,28234,.80856E-4,.2145E-4,0
STARLINK-2509,2021-036AU,2026-06-10T08:51:50.575104,15.31710465,.0001497,53.1628,30.7357,91.6434,268.4738,0,U,48318,999,28222,.18612E-3,.5416E-4,0
STARLINK-2512,2021-036AV,2026-06-10T08:38:15.888768,15.31708078,.0001076,53.1629,30.0540,92.1183,267.9942,0,U,48319,999,28223,.51582E-4,.1236E-4,0
STARLINK-2029,2021-036AW,2026-06-09T22:21:22.216032,15.31701210,.00010614,53.1620,32.3561,95.6309,264.4814,0,U,48320,999,28216,.69980293E-4,.1807E-4,0
STARLINK-2457,2021-036AX,2026-06-10T08:18:07.462944,15.31693444,.000127,53.1610,30.0518,91.4890,268.6257,0,U,48321,999,28223,.12032E-4,.8E-7,0
STARLINK-2515,2021-036AZ,2026-06-10T08:04:40.658016,15.31752432,.0001622,53.1610,30.0649,82.9208,277.1978,0,U,48323,999,28223,.66506E-3,.20363E-3,0
STARLINK-2495,2021-036BB,2026-06-10T08:11:25.789344,15.31702208,.0001496,53.1612,30.1742,82.1747,277.9424,0,U,48325,999,28223,.10599E-3,.2925E-4,0
STARLINK-2498,2021-036BC,2026-06-10T07:58:28.853760,15.31717229,.000075,53.1580,30.1451,76.2419,283.8666,0,U,48326,999,28223,.67975E-3,.20799E-3,0
STARLINK-2502,2021-036BD,2026-06-10T07:51:46.470816,15.31710720,.0001197,53.1599,30.1730,98.0158,262.0979,0,U,48327,999,28223,.2179E-3,.6405E-4,0
STARLINK-2504,2021-036BE,2026-06-09T22:07:22.341504,15.31703154,.00010938,53.1597,31.9385,68.6254,291.4864,0,U,48328,999,28216,.13211737E-3,.3737E-4,0
STARLINK-2510,2021-036BF,2026-06-09T22:01:08.370336,15.31699890,.00011614,53.1608,31.9533,78.4625,281.6507,0,U,48329,999,28217,.72689295E-4,.1891E-4,0
STARLINK-2501,2021-036BG,2026-06-10T08:25:23.928960,15.31707217,.0001002,53.1611,30.4328,97.6971,262.4144,0,U,48330,999,28223,.23353E-4,.36E-5,0
STARLINK-2514,2021-036BH,2026-06-10T08:10:05.232576,15.32744177,.0001267,53.1594,30.4046,192.6776,167.4194,0,U,48331,999,28223,.16206E-2,.51954E-3,0
STARLINK-2518,2021-036BK,2026-06-10T08:45:27.199296,15.31705602,.0001446,53.1615,29.9244,91.0396,269.0771,0,U,48333,999,28224,.10957E-3,.3037E-4,0
STARLINK-2470,2021-036BL,2026-06-10T08:38:43.778688,15.31706194,.0001463,53.1623,29.9380,97.8484,262.2683,0,U,48334,999,28224,.4908E-4,.1158E-4,0
YAOGAN-34 01,2021-037A,2026-06-10T01:32:03.661728,13.45484477,.00400504,63.4015,164.6735,350.9620,9.0680,0,U,48340,999,25104,-.88678713E-4,-.143E-5,0
STARLINK-2613,2021-038A,2026-06-10T01:46:05.185632,15.31701717,.00013179,53.1603,288.3816,78.3127,281.8023,0,U,48353,999,28123,.14625708E-3,.4176E-4,0
STARLINK-2674,2021-038B,2026-06-10T01:52:49.136736,15.31706298,.00012278,53.1608,288.4423,82.4015,277.7126,0,U,48354,999,28123,.75688163E-4,.1985E-4,0
STARLINK-2635,2021-038C,2026-06-10T12:30:25.536096,15.31739687,.0000879,53.1592,286.2785,68.9548,291.1547,0,U,48355,999,28130,-.29562E-3,-.9538E-4,0
STARLINK-2637,2021-038D,2026-06-10T02:06:15.552000,15.31722317,.00018616,53.1611,288.5923,303.4366,56.6457,0,U,48356,999,28123,.28193738E-3,.84E-4,0
STARLINK-2636,2021-038E,2026-06-10T12:23:41.634240,15.31700445,.0001589,53.1607,286.3550,93.1622,266.9561,0,U,48357,999,28130,.12774E-4,.31E-6,0
STARLINK-2624,2021-038F,2026-06-10T12:16:58.419264,15.31696956,.0001023,53.1585,286.3357,86.2565,273.8553,0,U,48358,999,28129,.67847E-4,.1741E-4,0
STARLINK-2628,2021-038G,2026-06-10T01:59:34.271520,15.31699097,.00013055,53.1611,288.6754,73.6729,286.4416,0,U,48359,999,28122,.81773215E-4,.2173E-4,0
STARLINK-2622,2021-038H,2026-06-10T12:10:15.866112,15.31702620,.0001157,53.1606,286.3840,93.0202,267.0931,0,U,48360,999,28129,.15999E-4,.131E-5,0
STARLINK-2591,2021-038J,2026-06-10T12:03:32.961312,15.31704669,.00011,53.1605,286.4042,150.2786,209.8278,0,U,48361,999,28129,.61786E-4,.1553E-4,0
STARLINK-2578,2021-038K,2026-06-10T12:37:06.938400,15.31699615,.0001109,53.1586,286.2797,81.1915,278.9211,0,U,48362,999,28130,.44091E-4,.1003E-4,0
STARLINK-2611,2021-038M,2026-06-09T14:44:26.346048,15.31714099,.00011877,53.1590,280.1864,86.0656,274.0482,0,U,48364,999,28131,.15810102E-3,.4546E-4,0
STARLINK-2608,2021-038N,2026-06-10T12:19:47.345088,15.31696975,.0001411,53.1616,276.0556,95.4612,264.6550,0,U,48365,999,28145,.19259E-3,.5615E-4,0
STARLINK-2643,2021-038Q,2026-06-10T11:45:44.448192,15.31697334,.0001021,53.1614,273.7040,58.4165,301.6936,0,U,48367,999,28147,.35726E-4,.744E-5,0
STARLINK-2623,2021-038R,2026-06-09T14:57:58.274496,15.31717774,.0000964,53.1592,280.7134,96.0657,264.0454,0,U,48368,999,28130,.24377803E-3,.7211E-4,0
