STARLINK-2513           
1 48317U 21036AT  26160.88143552  .00002145  00000+0  80856-4 0  9998
2 48317  53.1595  19.3231 0001146  83.9044 276.2088 15.31697593282343
STARLINK-2509           
1 48318U 21036AU  26161.36933536  .00005416  00000+0  18612-3 0  9996
2 48318  53.1628  30.7357 0001497  91.6434 268.4738 15.31710465282221
STARLINK-2512           
1 48319U 21036AV  26161.35990612  .00001236  00000+0  51582-4 0  9994
2 48319  53.1629  30.0540 0001076  92.1183 267.9942 15.31708078282239
STARLINK-2029           
1 48320U 21036AW  26160.93150713  .00001807  00000+0  69980-4 0  9994
2 48320  53.1620  32.3561 0001061  95.6309 264.4814 15.31701210282165
STARLINK-2457           
1 48321U 21036AX  26161.34591971  .00000008  00000+0  12032-4 0  9994
2 48321  53.1610  30.0518 0001270  91.4890 268.6257 15.31693444282237
STARLINK-2515           
1 48323U 21036AZ  26161.33658169  .00020363  00000+0  66506-3 0  9998
2 48323  53.1610  30.0649 0001622  82.9208 277.1978 15.31752432282231
STARLINK-2495           
1 48325U 21036BB  26161.34127071  .00002925  00000+0  10599-3 0  9999
2 48325  53.1612  30.1742 0001496  82.1747 277.9424 15.31702208282239
STARLINK-2498           
1 48326U 21036BC  26161.33227840  .00020799  00000+0  67975-3 0  9993
2 48326  53.1580  30.1451 0000750  76.2419 283.8666 15.31717229282236
STARLINK-2502           
1 48327U 21036BD  26161.32762119  .00006405  00000+0  21790-3 0  9999
2 48327  53.1599  30.1730 0001197  98.0158 262.0979 15.31710720282230
STARLINK-2504           
1 48328U 21036BE  26160.92178636  .00003737  00000+0  13212-3 0  9995
2 48328  53.1597  31.9385 0001093  68.6254 291.4864 15.31703154282163
STARLINK-2510           
1 48329U 21036BF  26160.91745799  .00001891  00000+0  72689-4 0  9998
2 48329  53.1608  31.9533 0001161  78.4625 281.6507 15.31699890282176
STARLINK-2501           
1 48330U 21036BG  26161.35097140  .00000360  00000+0  23353-4 0  9993
2 48330  53.1611  30.4328 0001002  97.6971 262.4144 15.31707217282233
STARLINK-2514           
1 48331U 21036BH  26161.34033834  .00051954  00000+0  16206-2 0  9995
2 48331  53.1594  30.4046 0001267 192.6776 167.4194 15.32744177282239
STARLINK-2518           
1 48333U 21036BK  26161.36489814  .00003037  00000+0  10957-3 0  9999
2 48333  53.1615  29.9244 0001446  91.0396 269.0771 15.31705602282247
STARLINK-2470           
1 48334U 21036BL  26161.36022892  .00001158  00000+0  49080-4 0  9991
2 48334  53.1623  29.9380 0001463  97.8484 262.2683 15.31706194282243
YAOGAN-34 01            
1 48340U 21037A   26161.06393127 -.00000143  00000+0 -88679-4 0  9990
2 48340  63.4015 164.6735 0040050 350.9620   9.0680 13.45484477251048
STARLINK-2613           
1 48353U 21038A   26161.07367113  .00004176  00000+0  14626-3 0  9990
2 48353  53.1603 288.3816 0001317  78.3127 281.8023 15.31701717281232
STARLINK-2674           
1 48354U 21038B   26161.07834649  .00001985  00000+0  75688-4 0  9995
2 48354  53.1608 288.4423 0001227  82.4015 277.7126 15.31706298281232
STARLINK-2635           
1 48355U 21038C   26161.52112889 -.00009538  00000+0 -29562-3 0  9994
2 48355  53.1592 286.2785 0000879  68.9548 291.1547 15.31739687281307
STARLINK-2637           
1 48356U 21038D   26161.08768000  .00008400  00000+0  28194-3 0  9993
2 48356  53.1611 288.5923 0001861 303.4366  56.6457 15.31722317281234
STARLINK-2636           
1 48357U 21038E   26161.51645410  .00000031  00000+0  12774-4 0  9991
2 48357  53.1607 286.3550 0001589  93.1622 266.9561 15.31700445281305
STARLINK-2624           
1 48358U 21038F   26161.51178726  .00001741  00000+0  67847-4 0  9993
2 48358  53.1585 286.3357 0001023  86.2565 273.8553 15.31696956281295
STARLINK-2628           
1 48359U 21038G   26161.08303555  .00002173  00000+0  81773-4 0  9990
2 48359  53.1611 288.6754 0001305  73.6729 286.4416 15.31699097281227
STARLINK-2622           
1 48360U 21038H   26161.50712808  .00000131  00000+0  15999-4 0  9993
2 48360  53.1606 286.3840 0001157  93.0202 267.0931 15.31702620281292
STARLINK-2591           
1 48361U 21038J   26161.50246483  .00001553  00000+0  61786-4 0  9999
2 48361  53.1605 286.4042 0001100 150.2786 209.8278 15.31704669281291
STARLINK-2578           
1 48362U 21038K   26161.52577475  .00001003  00000+0  44091-4 0  9990
2 48362  53.1586 286.2797 0001109  81.1915 278.9211 15.31699615281300
STARLINK-2611           
1 48364U 21038M   26160.61419382  .00004546  00000+0  15810-3 0  9994
2 48364  53.1590 280.1864 0001187  86.0656 274.0482 15.31714099281319
STARLINK-2608           
1 48365U 21038N   26161.51374242  .00005615  00000+0  19259-3 0  9999
2 48365  53.1616 276.0556 0001411  95.4612 264.6550 15.31696975281455
STARLINK-2643           
1 48367U 21038Q   26161.49009778  .00000744  00000+0  35726-4 0  9993
2 48367  53.1614 273.7040 0001021  58.4165 301.6936 15.31697334281478
STARLINK-2623           
1 48368U 21038R   26160.62359114  .00007211  00000+0  24378-3 0  9996
2 48368  53.1592 280.7134 0000964  96.0657 264.0454 15.31717774281305
